[{"OBJECT_NAME":"KINEIS-2C","OBJECT_ID":"2025-028B","EPOCH":"2026-03-09T22:20:44.060928","MEAN_MOTION":14.72317253,"ECCENTRICITY":9.527e-5,"INCLINATION":98.0273,"RA_OF_ASC_NODE":124.0949,"ARG_OF_PERICENTER":34.6076,"MEAN_ANOMALY":325.5193,"EPHEMERIS_TYPE":0,"CLASSIFICATION_TYPE":"U","NORAD_CAT_ID":62929,"ELEMENT_SET_NO":999,"REV_AT_EPOCH":5800,"BSTAR":0.00026506877,"MEAN_MOTION_DOT":1.626e-5,"MEAN_MOTION_DDOT":0},{"OBJECT_NAME":"CZ-6A DEB","OBJECT_ID":"2024-140KV","EPOCH":"2026-03-09T13:49:28.379424","MEAN_MOTION":14.69807292,"ECCENTRICITY":0.0081021,"INCLINATION":89,"RA_OF_ASC_NODE":281.7113,"ARG_OF_PERICENTER":222.367,"MEAN_ANOMALY":137.1274,"EPHEMERIS_TYPE":0,"CLASSIFICATION_TYPE":"U","NORAD_CAT_ID":60890,"ELEMENT_SET_NO":999,"REV_AT_EPOCH":8285,"BSTAR":0.0020852,"MEAN_MOTION_DOT":0.00013121,"MEAN_MOTION_DDOT":0}]
